{
    "links": {
        "self": "http://www.neowsapp.com/rest/v1/neo/3782018?api_key=iIulBulltgU6a56xZRHN4H3l9WmuAYTsLGpBGhQ2"
    },
    "id": "3782018",
    "neo_reference_id": "3782018",
    "name": "(2017 SB21)",
    "designation": "2017 SB21",
    "nasa_jpl_url": "http://ssd.jpl.nasa.gov/sbdb.cgi?sstr=3782018",
    "absolute_magnitude_h": 24.5,
    "estimated_diameter": {
        "kilometers": {
            "estimated_diameter_min": 0.0334622374,
            "estimated_diameter_max": 0.0748238376
        },
        "meters": {
            "estimated_diameter_min": 33.4622374455,
            "estimated_diameter_max": 74.8238376074
        },
        "miles": {
            "estimated_diameter_min": 0.0207924639,
            "estimated_diameter_max": 0.0464933628
        },
        "feet": {
            "estimated_diameter_min": 109.7842471007,
            "estimated_diameter_max": 245.4850393757
        }
    },
    "is_potentially_hazardous_asteroid": false,
    "close_approach_data": [
        {
            "close_approach_date": "2010-05-27",
            "close_approach_date_full": "2010-May-27 05:13",
            "epoch_date_close_approach": 1274937180000,
            "relative_velocity": {
                "kilometers_per_second": "19.5368068326",
                "kilometers_per_hour": "70332.504597275",
                "miles_per_hour": "43701.8832037901"
            },
            "miss_distance": {
                "astronomical": "0.389862881",
                "lunar": "151.656660709",
                "kilometers": "58322656.58966347",
                "miles": "36240018.332837086"
            },
            "orbiting_body": "Earth"
        },
        {
            "close_approach_date": "2017-09-18",
            "close_approach_date_full": "2017-Sep-18 01:04",
            "epoch_date_close_approach": 1505696640000,
            "relative_velocity": {
                "kilometers_per_second": "10.396158417",
                "kilometers_per_hour": "37426.1703011734",
                "miles_per_hour": "23255.1667629707"
            },
            "miss_distance": {
                "astronomical": "0.0756614602",
                "lunar": "29.4323080178",
                "kilometers": "11318793.287009774",
                "miles": "7033172.0160279212"
            },
            "orbiting_body": "Earth"
        }
    ],
    "orbital_data": {
        "orbit_id": "3",
        "orbit_determination_date": "2017-10-18 06:22:32",
        "first_observation_date": "2017-09-22",
        "last_observation_date": "2017-10-17",
        "data_arc_in_days": 25,
        "observations_used": 14,
        "orbit_uncertainty": "7",
        "minimum_orbit_intersection": ".0661561",
        "jupiter_tisserand_invariant": "3.944",
        "epoch_osculation": "2459000.5",
        "eccentricity": ".4656430782217094",
        "semi_major_axis": "1.775968219629676",
        "inclination": "11.38386053241131",
        "ascending_node_longitude": "13.84335139501608",
        "orbital_period": "864.4725586147184",
        "perihelion_distance": ".9490009110173846",
        "perihelion_argument": "300.5824342329495",
        "aphelion_distance": "2.602935528241967",
        "perihelion_time": "2458844.083299917320",
        "mean_anomaly": "65.13799827261074",
        "mean_motion": ".4164388983924315",
        "equinox": "J2000",
        "orbit_class": {
            "orbit_class_type": "APO",
            "orbit_class_description": "Near-Earth asteroid orbits which cross the Earth’s orbit similar to that of 1862 Apollo",
            "orbit_class_range": "a (semi-major axis) > 1.0 AU; q (perihelion) < 1.017 AU"
        }
    },
    "is_sentry_object": false
}